IRIDIUM 33 DEB          
1 33960U 97051BV  26094.89461319  .00030073  00000+0  29642-2 0  9992
2 33960  86.2529 235.8626 0001229  63.3426  58.1547 14.91889974905504
IRIDIUM 33 DEB          
1 33966U 97051CB  26095.15849000  .00002665  00000+0  68090-3 0  9992
2 33966  86.3971 357.3464 0007226 166.4856 315.3462 14.50167956900858
IRIDIUM 33 DEB          
1 34071U 97051CE  26095.12788533  .00002797  00000+0  71527-3 0  9995
2 34071  86.3458 328.5448 0009722  88.5787 271.6532 14.50127327899776
IRIDIUM 33 DEB          
1 34077U 97051CL  26095.23646323  .00009474  00000+0  16788-2 0  9999
2 34077  86.3892   1.4273 0010184  12.9570 150.7931 14.67170469899955
IRIDIUM 33 DEB          
1 34079U 97051CN  26095.13410257  .00014810  00000+0  16141-2 0  9998
2 34079  86.3741 316.9180 0005053 320.5517 167.9066 14.87881742906615
IRIDIUM 33 DEB          
1 34088U 97051CX  26095.18473746  .00037526  00000+0  29976-2 0  9994
2 34088  86.3834 338.2657 0004960 116.5030  10.8604 15.00079081904379
IRIDIUM 33 DEB          
1 34091U 97051DA  26095.03831830  .00038187  00000+0  37124-2 0  9992
2 34091  86.3477  14.5423 0024408 256.8586 102.9918 14.92178630895509
IRIDIUM 33 DEB          
1 34097U 97051DG  26095.01850038  .00004038  00000+0  13393-2 0  9997
2 34097  86.1965 311.3825 0081688 352.3588   7.6356 14.35737935887443
IRIDIUM 33 DEB          
1 34145U 97051DY  26094.72240790  .00005186  00000+0  15077-2 0  9992
2 34145  86.2055 282.1601 0054137  81.7430 278.9905 14.43270022892675
IRIDIUM 33 DEB          
1 34146U 97051DZ  26094.63040064  .00003763  00000+0  96566-3 0  9997
2 34146  86.2785 299.9099 0025557 205.8745 219.5694 14.49862636897423
IRIDIUM 33 DEB          
1 34159U 97051EN  26095.17491415  .00001582  00000+0  50668-3 0  9991
2 34159  86.3557 359.8760 0025734 276.5861  83.2408 14.38829644895907
IRIDIUM 33 DEB          
1 34350U 97051ES  26095.13572056  .00001358  00000+0  37645-3 0  9992
2 34350  86.3257 313.6143 0022732 119.7167   8.8062 14.45755020899314
IRIDIUM 33 DEB          
1 34366U 97051FJ  26095.26031049  .00005809  00000+0  13319-2 0  9991
2 34366  86.3735 359.8978 0022047 114.7665  10.3849 14.55280517898323
IRIDIUM 33 DEB          
1 34375U 97051FT  26094.60851265  .00001192  00000+0  54058-3 0  9995
2 34375  86.4304 137.2309 0103929 127.8447  35.3338 14.18230699883110
IRIDIUM 33 DEB          
1 34376U 97051FU  26095.01931815  .00009434  00000+0  17484-2 0  9990
2 34376  86.2941 315.5202 0025791 141.8058 218.4989 14.64981400896645
IRIDIUM 33 DEB          
1 34486U 97051GB  26095.09434433  .00032033  00000+0  23116-2 0  9994
2 34486  86.3881 319.3756 0010955  67.8550  84.0667 15.03926948906852
