[{"OBJECT_NAME":"IRIDIUM 33 DEB","OBJECT_ID":"1997-051BV","EPOCH":"2026-04-04T21:28:14.579616","MEAN_MOTION":14.91889974,"ECCENTRICITY":0.00012291,"INCLINATION":86.2529,"RA_OF_ASC_NODE":235.8626,"ARG_OF_PERICENTER":63.3426,"MEAN_ANOMALY":58.1547,"EPHEMERIS_TYPE":0,"CLASSIFICATION_TYPE":"U","NORAD_CAT_ID":33960,"ELEMENT_SET_NO":999,"REV_AT_EPOCH":90550,"BSTAR":0.0029642255,"MEAN_MOTION_DOT":0.00030073,"MEAN_MOTION_DDOT":0},{"OBJECT_NAME":"IRIDIUM 33 DEB","OBJECT_ID":"1997-051CB","EPOCH":"2026-04-05T03:48:13.536000","MEAN_MOTION":14.50167956,"ECCENTRICITY":0.00072268,"INCLINATION":86.3971,"RA_OF_ASC_NODE":357.3464,"ARG_OF_PERICENTER":166.4856,"MEAN_ANOMALY":315.3462,"EPHEMERIS_TYPE":0,"CLASSIFICATION_TYPE":"U","NORAD_CAT_ID":33966,"ELEMENT_SET_NO":999,"REV_AT_EPOCH":90085,"BSTAR":0.00068090108,"MEAN_MOTION_DOT":2.665e-5,"MEAN_MOTION_DDOT":0},{"OBJECT_NAME":"IRIDIUM 33 DEB","OBJECT_ID":"1997-051CE","EPOCH":"2026-04-05T03:04:09.292512","MEAN_MOTION":14.50127327,"ECCENTRICITY":0.00097227,"INCLINATION":86.3458,"RA_OF_ASC_NODE":328.5448,"ARG_OF_PERICENTER":88.5787,"MEAN_ANOMALY":271.6532,"EPHEMERIS_TYPE":0,"CLASSIFICATION_TYPE":"U","NORAD_CAT_ID":34071,"ELEMENT_SET_NO":999,"REV_AT_EPOCH":89977,"BSTAR":0.00071527322,"MEAN_MOTION_DOT":2.797e-5,"MEAN_MOTION_DDOT":0},{"OBJECT_NAME":"IRIDIUM 33 DEB","OBJECT_ID":"1997-051CL","EPOCH":"2026-04-05T05:40:30.423072","MEAN_MOTION":14.67170469,"ECCENTRICITY":0.00101845,"INCLINATION":86.3892,"RA_OF_ASC_NODE":1.4273,"ARG_OF_PERICENTER":12.957,"MEAN_ANOMALY":150.7931,"EPHEMERIS_TYPE":0,"CLASSIFICATION_TYPE":"U","NORAD_CAT_ID":34077,"ELEMENT_SET_NO":999,"REV_AT_EPOCH":89995,"BSTAR":0.0016788028,"MEAN_MOTION_DOT":9.474e-5,"MEAN_MOTION_DDOT":0},{"OBJECT_NAME":"IRIDIUM 33 DEB","OBJECT_ID":"1997-051CN","EPOCH":"2026-04-05T03:13:06.462048","MEAN_MOTION":14.87881742,"ECCENTRICITY":0.00050533,"INCLINATION":86.3741,"RA_OF_ASC_NODE":316.918,"ARG_OF_PERICENTER":320.5517,"MEAN_ANOMALY":167.9066,"EPHEMERIS_TYPE":0,"CLASSIFICATION_TYPE":"U","NORAD_CAT_ID":34079,"ELEMENT_SET_NO":999,"REV_AT_EPOCH":90661,"BSTAR":0.0016140625,"MEAN_MOTION_DOT":0.0001481,"MEAN_MOTION_DDOT":0},{"OBJECT_NAME":"IRIDIUM 33 DEB","OBJECT_ID":"1997-051CX","EPOCH":"2026-04-05T04:26:01.316544","MEAN_MOTION":15.00079081,"ECCENTRICITY":0.000496,"INCLINATION":86.3834,"RA_OF_ASC_NODE":338.2657,"ARG_OF_PERICENTER":116.503,"MEAN_ANOMALY":10.8604,"EPHEMERIS_TYPE":0,"CLASSIFICATION_TYPE":"U","NORAD_CAT_ID":34088,"ELEMENT_SET_NO":999,"REV_AT_EPOCH":90437,"BSTAR":0.00299758,"MEAN_MOTION_DOT":0.00037526,"MEAN_MOTION_DDOT":0},{"OBJECT_NAME":"IRIDIUM 33 DEB","OBJECT_ID":"1997-051DA","EPOCH":"2026-04-05T00:55:10.701120","MEAN_MOTION":14.9217863,"ECCENTRICITY":0.00244085,"INCLINATION":86.3477,"RA_OF_ASC_NODE":14.5423,"ARG_OF_PERICENTER":256.8586,"MEAN_ANOMALY":102.9918,"EPHEMERIS_TYPE":0,"CLASSIFICATION_TYPE":"U","NORAD_CAT_ID":34091,"ELEMENT_SET_NO":999,"REV_AT_EPOCH":89550,"BSTAR":0.0037124451,"MEAN_MOTION_DOT":0.00038187,"MEAN_MOTION_DDOT":0},{"OBJECT_NAME":"IRIDIUM 33 DEB","OBJECT_ID":"1997-051DG","EPOCH":"2026-04-05T00:26:38.432832","MEAN_MOTION":14.35737935,"ECCENTRICITY":0.0081688,"INCLINATION":86.1965,"RA_OF_ASC_NODE":311.3825,"ARG_OF_PERICENTER":352.3588,"MEAN_ANOMALY":7.6356,"EPHEMERIS_TYPE":0,"CLASSIFICATION_TYPE":"U","NORAD_CAT_ID":34097,"ELEMENT_SET_NO":999,"REV_AT_EPOCH":88744,"BSTAR":0.0013393488,"MEAN_MOTION_DOT":4.038e-5,"MEAN_MOTION_DDOT":0},{"OBJECT_NAME":"IRIDIUM 33 DEB","OBJECT_ID":"1997-051DY","EPOCH":"2026-04-04T17:20:16.042560","MEAN_MOTION":14.43270022,"ECCENTRICITY":0.00541371,"INCLINATION":86.2055,"RA_OF_ASC_NODE":282.1601,"ARG_OF_PERICENTER":81.743,"MEAN_ANOMALY":278.9905,"EPHEMERIS_TYPE":0,"CLASSIFICATION_TYPE":"U","NORAD_CAT_ID":34145,"ELEMENT_SET_NO":999,"REV_AT_EPOCH":89267,"BSTAR":0.0015076753,"MEAN_MOTION_DOT":5.186e-5,"MEAN_MOTION_DDOT":0},{"OBJECT_NAME":"IRIDIUM 33 DEB","OBJECT_ID":"1997-051DZ","EPOCH":"2026-04-04T15:07:46.615296","MEAN_MOTION":14.49862636,"ECCENTRICITY":0.0025557,"INCLINATION":86.2785,"RA_OF_ASC_NODE":299.9099,"ARG_OF_PERICENTER":205.8745,"MEAN_ANOMALY":219.5694,"EPHEMERIS_TYPE":0,"CLASSIFICATION_TYPE":"U","NORAD_CAT_ID":34146,"ELEMENT_SET_NO":999,"REV_AT_EPOCH":89742,"BSTAR":0.00096566,"MEAN_MOTION_DOT":3.763e-5,"MEAN_MOTION_DDOT":0},{"OBJECT_NAME":"IRIDIUM 33 DEB","OBJECT_ID":"1997-051EN","EPOCH":"2026-04-05T04:11:52.582560","MEAN_MOTION":14.38829644,"ECCENTRICITY":0.00257344,"INCLINATION":86.3557,"RA_OF_ASC_NODE":359.876,"ARG_OF_PERICENTER":276.5861,"MEAN_ANOMALY":83.2408,"EPHEMERIS_TYPE":0,"CLASSIFICATION_TYPE":"U","NORAD_CAT_ID":34159,"ELEMENT_SET_NO":999,"REV_AT_EPOCH":89590,"BSTAR":0.00050668291,"MEAN_MOTION_DOT":1.582e-5,"MEAN_MOTION_DDOT":0},{"OBJECT_NAME":"IRIDIUM 33 DEB","OBJECT_ID":"1997-051ES","EPOCH":"2026-04-05T03:15:26.256384","MEAN_MOTION":14.4575502,"ECCENTRICITY":0.00227325,"INCLINATION":86.3257,"RA_OF_ASC_NODE":313.6143,"ARG_OF_PERICENTER":119.7167,"MEAN_ANOMALY":8.8062,"EPHEMERIS_TYPE":0,"CLASSIFICATION_TYPE":"U","NORAD_CAT_ID":34350,"ELEMENT_SET_NO":999,"REV_AT_EPOCH":89931,"BSTAR":0.00037645282,"MEAN_MOTION_DOT":1.358e-5,"MEAN_MOTION_DDOT":0},{"OBJECT_NAME":"IRIDIUM 33 DEB","OBJECT_ID":"1997-051FJ","EPOCH":"2026-04-05T06:14:50.826336","MEAN_MOTION":14.55280517,"ECCENTRICITY":0.00220476,"INCLINATION":86.3735,"RA_OF_ASC_NODE":359.8978,"ARG_OF_PERICENTER":114.7665,"MEAN_ANOMALY":10.3849,"EPHEMERIS_TYPE":0,"CLASSIFICATION_TYPE":"U","NORAD_CAT_ID":34366,"ELEMENT_SET_NO":999,"REV_AT_EPOCH":89832,"BSTAR":0.0013319355,"MEAN_MOTION_DOT":5.809e-5,"MEAN_MOTION_DDOT":0},{"OBJECT_NAME":"IRIDIUM 33 DEB","OBJECT_ID":"1997-051FT","EPOCH":"2026-04-04T14:36:15.492960","MEAN_MOTION":14.18230699,"ECCENTRICITY":0.0103929,"INCLINATION":86.4304,"RA_OF_ASC_NODE":137.2309,"ARG_OF_PERICENTER":127.8447,"MEAN_ANOMALY":35.3338,"EPHEMERIS_TYPE":0,"CLASSIFICATION_TYPE":"U","NORAD_CAT_ID":34375,"ELEMENT_SET_NO":999,"REV_AT_EPOCH":88311,"BSTAR":0.00054058,"MEAN_MOTION_DOT":1.192e-5,"MEAN_MOTION_DDOT":0},{"OBJECT_NAME":"IRIDIUM 33 DEB","OBJECT_ID":"1997-051FU","EPOCH":"2026-04-05T00:27:49.088160","MEAN_MOTION":14.649814,"ECCENTRICITY":0.0025791,"INCLINATION":86.2941,"RA_OF_ASC_NODE":315.5202,"ARG_OF_PERICENTER":141.8058,"MEAN_ANOMALY":218.4989,"EPHEMERIS_TYPE":0,"CLASSIFICATION_TYPE":"U","NORAD_CAT_ID":34376,"ELEMENT_SET_NO":999,"REV_AT_EPOCH":89664,"BSTAR":0.0017484338,"MEAN_MOTION_DOT":9.434e-5,"MEAN_MOTION_DDOT":0},{"OBJECT_NAME":"IRIDIUM 33 DEB","OBJECT_ID":"1997-051GB","EPOCH":"2026-04-05T02:15:51.350112","MEAN_MOTION":15.03926948,"ECCENTRICITY":0.00109551,"INCLINATION":86.3881,"RA_OF_ASC_NODE":319.3756,"ARG_OF_PERICENTER":67.855,"MEAN_ANOMALY":84.0667,"EPHEMERIS_TYPE":0,"CLASSIFICATION_TYPE":"U","NORAD_CAT_ID":34486,"ELEMENT_SET_NO":999,"REV_AT_EPOCH":90685,"BSTAR":0.0023115521,"MEAN_MOTION_DOT":0.00032033,"MEAN_MOTION_DDOT":0}]
